[{"OBJECT_NAME":"ESEO","OBJECT_ID":"2018-099AL","EPOCH":"2026-03-09T15:43:37.559712","MEAN_MOTION":15.03914518,"ECCENTRICITY":0.00110626,"INCLINATION":97.4113,"RA_OF_ASC_NODE":110.2601,"ARG_OF_PERICENTER":317.6,"MEAN_ANOMALY":42.4371,"EPHEMERIS_TYPE":0,"CLASSIFICATION_TYPE":"U","NORAD_CAT_ID":43792,"ELEMENT_SET_NO":999,"REV_AT_EPOCH":39684,"BSTAR":0.00020934561,"MEAN_MOTION_DOT":2.831e-5,"MEAN_MOTION_DDOT":0},{"OBJECT_NAME":"STARLINK-5549","OBJECT_ID":"2023-058AV","EPOCH":"2026-03-09T22:18:50.538240","MEAN_MOTION":15.05642057,"ECCENTRICITY":0.00019142,"INCLINATION":97.6041,"RA_OF_ASC_NODE":71.4706,"ARG_OF_PERICENTER":83.2226,"MEAN_ANOMALY":276.9219,"EPHEMERIS_TYPE":0,"CLASSIFICATION_TYPE":"U","NORAD_CAT_ID":56360,"ELEMENT_SET_NO":999,"REV_AT_EPOCH":15823,"BSTAR":7.149591e-6,"MEAN_MOTION_DOT":4.2e-7,"MEAN_MOTION_DDOT":0}]
